{
  "norad_id": 62923,
  "name": "STARLINK-32905",
  "history": [
    {
      "epoch": "2026-03-28T13:05:20.025888Z",
      "apogee_km": 483.7906370845694,
      "perigee_km": 482.2359004336695,
      "latitude_deg": -4.758373474285072e-05,
      "longitude_deg": 0.29543040487418126,
      "height_km": 482.0991324752065,
      "semi_major_axis_km": 6861.150268759119,
      "eccentricity": 0.0001133,
      "inclination_deg": 42.9997,
      "raan_deg": 22.5932,
      "arg_perigee_deg": 332.5947,
      "mean_anomaly_deg": 27.4844,
      "mean_motion_rev_day": 15.27591965
    },
    {
      "epoch": "2026-03-29T04:46:53.020128Z",
      "apogee_km": 483.917954837073,
      "perigee_km": 481.99547637795877,
      "latitude_deg": -2.239912384945461e-05,
      "longitude_deg": 120.56831318141344,
      "height_km": 482.49003547836395,
      "semi_major_axis_km": 6861.093715607515,
      "eccentricity": 0.0001401,
      "inclination_deg": 43.0038,
      "raan_deg": 18.898,
      "arg_perigee_deg": 284.6926,
      "mean_anomaly_deg": 75.377,
      "mean_motion_rev_day": 15.27610852
    },
    {
      "epoch": "2026-03-30T04:19:13.651104Z",
      "apogee_km": 484.00237326875686,
      "perigee_km": 481.9664041078777,
      "latitude_deg": 2.3178265054859047e-05,
      "longitude_deg": 120.98048498454511,
      "height_km": 482.7290534837558,
      "semi_major_axis_km": 6861.121388688317,
      "eccentricity": 0.00014837,
      "inclination_deg": 43.0,
      "raan_deg": 13.3628,
      "arg_perigee_deg": 271.8073,
      "mean_anomaly_deg": 88.2609,
      "mean_motion_rev_day": 15.2760161
    },
    {
      "epoch": "2026-03-30T12:10:00.793632Z",
      "apogee_km": 484.0114104033328,
      "perigee_km": 482.12060007914897,
      "latitude_deg": 4.0094459361019294e-05,
      "longitude_deg": 1.108034826850754,
      "height_km": 482.9776323437338,
      "semi_major_axis_km": 6861.203005241241,
      "eccentricity": 0.00013779,
      "inclination_deg": 43.0056,
      "raan_deg": 11.509,
      "arg_perigee_deg": 261.8299,
      "mean_anomaly_deg": 98.2397,
      "mean_motion_rev_day": 15.27574353
    },
    {
      "epoch": "2026-03-30T20:00:48.204000Z",
      "apogee_km": 484.1790191228447,
      "perigee_km": 481.94460111834087,
      "latitude_deg": 4.0925498802019144e-05,
      "longitude_deg": -118.7544515317282,
      "height_km": 483.18650572756013,
      "semi_major_axis_km": 6861.1988101205925,
      "eccentricity": 0.00016283,
      "inclination_deg": 43.0054,
      "raan_deg": 9.6663,
      "arg_perigee_deg": 251.8874,
      "mean_anomaly_deg": 108.1801,
      "mean_motion_rev_day": 15.27575754
    },
    {
      "epoch": "2026-03-31T11:42:22.703328Z",
      "apogee_km": 483.833166722583,
      "perigee_km": 482.29186686313096,
      "latitude_deg": -7.714881080575487e-06,
      "longitude_deg": 1.5125651032370366,
      "height_km": 482.80019607019335,
      "semi_major_axis_km": 6861.199516792857,
      "eccentricity": 0.00011232,
      "inclination_deg": 43.0043,
      "raan_deg": 5.9716,
      "arg_perigee_deg": 272.9211,
      "mean_anomaly_deg": 87.1512,
      "mean_motion_rev_day": 15.27575518
    },
    {
      "epoch": "2026-04-01T11:14:43.722240Z",
      "apogee_km": 484.3332337490601,
      "perigee_km": 481.72461846395436,
      "latitude_deg": 5.2611029779154506e-05,
      "longitude_deg": 1.9205324858804633,
      "height_km": 482.8854242009855,
      "semi_major_axis_km": 6861.165926106507,
      "eccentricity": 0.0001901,
      "inclination_deg": 43.0037,
      "raan_deg": 0.4338,
      "arg_perigee_deg": 266.5273,
      "mean_anomaly_deg": 93.5362,
      "mean_motion_rev_day": 15.27586736
    },
    {
      "epoch": "2026-04-02T10:47:03.634368Z",
      "apogee_km": 484.02116904155537,
      "perigee_km": 481.88586045155625,
      "latitude_deg": -4.197827697277623e-05,
      "longitude_deg": 2.3319585791317463,
      "height_km": 482.7883160152253,
      "semi_major_axis_km": 6861.0905147465555,
      "eccentricity": 0.00015561,
      "inclination_deg": 43.0031,
      "raan_deg": 354.895,
      "arg_perigee_deg": 266.9055,
      "mean_anomaly_deg": 93.1618,
      "mean_motion_rev_day": 15.27611921
    },
    {
      "epoch": "2026-04-02T23:20:18.099744Z",
      "apogee_km": 483.0248239589873,
      "perigee_km": 482.7059245686323,
      "latitude_deg": 3.8519028312970913e-05,
      "longitude_deg": 170.55509717716015,
      "height_km": 482.50613030892805,
      "semi_major_axis_km": 6861.0023742638095,
      "eccentricity": 2.324e-05,
      "inclination_deg": 43.0017,
      "raan_deg": 351.9439,
      "arg_perigee_deg": 327.8334,
      "mean_anomaly_deg": 32.2504,
      "mean_motion_rev_day": 15.27641358
    },
    {
      "epoch": "2026-04-03T18:10:11.430336Z",
      "apogee_km": 483.8905885983786,
      "perigee_km": 482.13413436183964,
      "latitude_deg": -5.264157597344722e-06,
      "longitude_deg": -117.12334178191668,
      "height_km": 482.96795118746843,
      "semi_major_axis_km": 6861.149361480109,
      "eccentricity": 0.000128,
      "inclination_deg": 43.0032,
      "raan_deg": 347.5111,
      "arg_perigee_deg": 258.2609,
      "mean_anomaly_deg": 101.8099,
      "mean_motion_rev_day": 15.27592268
    },
    {
      "epoch": "2026-04-04T17:42:32.925312Z",
      "apogee_km": 484.0398870208237,
      "perigee_km": 481.92803398918113,
      "latitude_deg": 2.805273638380627e-06,
      "longitude_deg": -116.7175211676187,
      "height_km": 482.3248464891678,
      "semi_major_axis_km": 6861.120960505003,
      "eccentricity": 0.0001539,
      "inclination_deg": 43.0029,
      "raan_deg": 341.9732,
      "arg_perigee_deg": 294.3995,
      "mean_anomaly_deg": 65.6696,
      "mean_motion_rev_day": 15.27601753
    },
    {
      "epoch": "2026-04-05T09:24:06.074208Z",
      "apogee_km": 483.6609577057179,
      "perigee_km": 482.3248212710396,
      "latitude_deg": 2.6746126713447848e-05,
      "longitude_deg": 3.5565132383314664,
      "height_km": 482.5796163581125,
      "semi_major_axis_km": 6861.1298894883785,
      "eccentricity": 9.737e-05,
      "inclination_deg": 43.0017,
      "raan_deg": 338.2798,
      "arg_perigee_deg": 286.5039,
      "mean_anomaly_deg": 73.5706,
      "mean_motion_rev_day": 15.27598771
    },
    {
      "epoch": "2026-04-05T17:14:53.523456Z",
      "apogee_km": 483.7962458170714,
      "perigee_km": 482.4020426325642,
      "latitude_deg": -1.4090951570997631e-05,
      "longitude_deg": -116.30998096109113,
      "height_km": 482.8686708154892,
      "semi_major_axis_km": 6861.2361442248175,
      "eccentricity": 0.0001016,
      "inclination_deg": 43.0023,
      "raan_deg": 336.4333,
      "arg_perigee_deg": 270.5842,
      "mean_anomaly_deg": 89.4893,
      "mean_motion_rev_day": 15.27563286
    }
  ]
}